NORAD_CAT_ID,OBJECT_NAME,OBJECT_TYPE,EPOCH,MEAN_MOTION,ECCENTRICITY,INCLINATION,RA_OF_ASC_NODE,ARG_OF_PERICENTER,MEAN_ANOMALY,BSTAR,MEAN_MOTION_DOT,MEAN_MOTION_DDOT,TLE_LINE0,TLE_LINE1,TLE_LINE2,SEMIMAJOR_AXIS,PERIOD,APOGEE,PERIGEE,DECAYED
54171.0,STARLINK-5229,PAYLOAD,2023-04-25 14:00:01,15.07152155,0.0001315,53.2182,38.516,111.4537,158.9228,0.00296,0.00044996,0.0,0 STARLINK-5229,1 54171U 22141Q   23115.58335648  .00044996  00000-0  29600-2 0  9993,2 54171  53.2182  38.5160 0001315 111.4537 158.9228 15.07152155 27406,6923.044,95.544,545.82,543.999,0.0
54171.0,STARLINK-5229,PAYLOAD,2023-04-25 22:00:00,15.0718297,0.0001363,53.2181,37.0242,111.0396,168.8365,-2.5052e-06,-3.21e-06,0.0,0 STARLINK-5229,1 54171U 22141Q   23115.91667824 -.00000321  00000-0 -25052-5 0  9990,2 54171  53.2181  37.0242 0001363 111.0396 168.8365 15.07182970 27457,6922.95,95.542,545.759,543.871,0.0
54171.0,STARLINK-5229,PAYLOAD,2023-04-26 14:00:01,15.07201691,0.000124,53.2177,34.0383,106.1238,193.0545,0.003068,0.00046723,0.0,0 STARLINK-5229,1 54171U 22141Q   23116.58334491  .00046723  00000-0  30680-2 0  9999,2 54171  53.2177  34.0383 0001240 106.1238 193.0545 15.07201691  1307,6922.893,95.541,545.616,543.899,0.0
54171.0,STARLINK-5229,PAYLOAD,2023-04-27 00:00:00,15.07271693,0.0001222,53.2174,32.1738,95.8905,305.3475,-0.0062234,-0.00093943,0.0,0 STARLINK-5229,1 54171U 22141Q   23117.00001157 -.00093943  00000-0 -62234-2 0  9995,2 54171  53.2174  32.1738 0001222  95.8905 305.3475 15.07271693  1301,6922.678,95.537,545.389,543.697,0.0
54171.0,STARLINK-5229,PAYLOAD,2023-04-27 04:35:34,15.07228514,0.0001365,53.2171,31.3163,103.288,256.8264,0.00063189,9.354e-05,0.0,0 STARLINK-5229,1 54171U 22141Q   23117.19136597  .00009354  00000-0  63189-3 0  9994,2 54171  53.2171  31.3163 0001365 103.2880 256.8264 15.07228514 27651,6922.81,95.54,545.62,543.73,0.0
54171.0,STARLINK-5229,PAYLOAD,2023-04-28 04:27:53,15.07225936,0.0001236,53.217,26.8625,96.2827,263.8305,0.00022739,3.182e-05,0.0,0 STARLINK-5229,1 54171U 22141Q   23118.18603717  .00003182  00000-0  22739-3 0  9996,2 54171  53.2170  26.8625 0001236  96.2827 263.8305 15.07225936 27807,6922.818,95.54,545.539,543.828,0.0
54171.0,STARLINK-5229,PAYLOAD,2023-04-28 10:49:51,15.07210905,0.0001223,53.2169,25.6747,92.6716,267.4416,-0.00012637,-2.207e-05,0.0,0 STARLINK-5229,1 54171U 22141Q   23118.45128617 -.00002207  00000-0 -12637-3 0  9992,2 54171  53.2169  25.6747 0001223  92.6716 267.4416 15.07210905 27847,6922.864,95.541,545.576,543.883,0.0
54171.0,STARLINK-5229,PAYLOAD,2023-04-29 02:44:44,15.07204382,0.0001301,53.2176,22.7058,89.6298,270.4843,0.00021922,3.055e-05,0.0,0 STARLINK-5229,1 54171U 22141Q   23119.11440838  .00003055  00000-0  21922-3 0  9995,2 54171  53.2176  22.7058 0001301  89.6298 270.4843 15.07204382 27947,6922.884,95.541,545.65,543.849,0.0
54171.0,STARLINK-5229,PAYLOAD,2023-04-30 02:37:05,15.07201143,0.0001283,53.2183,18.2518,81.391,278.7226,0.00010332,1.29e-05,0.0,0 STARLINK-5229,1 54171U 22141Q   23120.10909284  .00001290  00000-0  10332-3 0  9993,2 54171  53.2183  18.2518 0001283  81.3910 278.7226 15.07201143 28090,6922.894,95.541,545.647,543.871,0.0
54171.0,STARLINK-5229,PAYLOAD,2023-04-30 16:56:29,15.07215467,0.0001044,53.2182,15.5786,78.6857,281.4252,0.00056788,8.374e-05,0.0,0 STARLINK-5229,1 54171U 22141Q   23120.70589504  .00008374  00000-0  56788-3 0  9993,2 54171  53.2182  15.5786 0001044  78.6857 281.4252 15.07215467 28184,6922.85,95.54,545.438,543.993,0.0
54171.0,STARLINK-5229,PAYLOAD,2023-04-30 23:18:26,15.07227103,9.95e-05,53.2178,14.3922,87.9261,272.1845,0.00059276,8.756e-05,0.0,0 STARLINK-5229,1 54171U 22141Q   23120.97113578  .00008756  00000-0  59276-3 0  9995,2 54171  53.2178  14.3922 0000995  87.9261 272.1845 15.07227103 28224,6922.815,95.54,545.369,543.991,0.0
54171.0,STARLINK-5229,PAYLOAD,2023-05-01 19:59:42,15.07376986,0.0001819,53.2183,10.5345,114.436,245.6821,0.0034327,0.00052605,0.0,0 STARLINK-5229,1 54171U 22141Q   23121.83313405  .00052605  00000-0  34327-2 0  9993,2 54171  53.2183  10.5345 0001819 114.4360 245.6821 15.07376986 28356,6922.356,95.53,545.48,542.962,0.0
54171.0,STARLINK-5229,PAYLOAD,2023-05-01 21:35:10,15.07416813,0.0001378,53.2188,10.2374,56.6589,303.4534,0.0045442,0.00069977,0.0,0 STARLINK-5229,1 54171U 22141Q   23121.89942237  .00069977  00000-0  45442-2 0  9990,2 54171  53.2188  10.2374 0001378  56.6589 303.4534 15.07416813 28369,6922.234,95.528,545.053,543.145,0.0
54171.0,STARLINK-5229,PAYLOAD,2023-05-02 02:21:31,15.07545392,0.0001277,53.2183,9.3474,39.803,320.3055,0.0068288,0.00106215,0.0,0 STARLINK-5229,1 54171U 22141Q   23122.09828700  .00106215  00000-0  68288-2 0  9991,2 54171  53.2183   9.3474 0001277  39.8030 320.3055 15.07545392 28390,6921.84,95.52,544.589,542.821,0.0
54171.0,STARLINK-5229,PAYLOAD,2023-05-02 19:51:20,15.07944222,0.0002316,53.2188,6.076,64.679,295.4441,0.0091783,0.00145217,0.0,0 STARLINK-5229,1 54171U 22141Q   23122.82732414  .00145217  00000-0  91783-2 0  9999,2 54171  53.2188   6.0760 0002316  64.6790 295.4441 15.07944222 28500,6920.62,95.494,544.088,540.882,0.0
54171.0,STARLINK-5229,PAYLOAD,2023-05-03 03:48:18,15.08352405,0.0001118,53.2191,4.5862,52.8699,307.2395,0.013939,0.00225722,0.0,0 STARLINK-5229,1 54171U 22141Q   23123.15854420  .00225722  00000-0  13939-1 0  9994,2 54171  53.2191   4.5862 0001118  52.8699 307.2395 15.08352405 28558,6919.371,95.468,542.01,540.463,0.0
54171.0,STARLINK-5229,PAYLOAD,2023-05-03 14:00:01,15.08802924,9.22e-05,53.2174,2.6792,88.3505,60.4548,0.0023711,0.00037611,0.0,0 STARLINK-5229,1 54171U 22141Q   23123.58334491  .00037611  00000-0  23711-2 0  9990,2 54171  53.2174   2.6792 0000922  88.3505  60.4548 15.08802924 28613,6917.994,95.44,540.497,539.221,0.0
54171.0,STARLINK-5229,PAYLOAD,2023-05-03 22:00:00,15.0885991,9.91e-05,53.2172,1.1846,81.7614,78.6362,-0.0032819,-0.00052168,0.0,0 STARLINK-5229,1 54171U 22141Q   23123.91667824 -.00052168  00000-0 -32819-2 0  9991,2 54171  53.2172   1.1846 0000991  81.7614  78.6362 15.08859910  1308,6917.82,95.436,540.37,538.999,0.0
54171.0,STARLINK-5229,PAYLOAD,2023-05-04 14:00:01,15.0882528,9.72e-05,53.2168,358.1903,99.7892,83.8619,0.003242,0.00051666,0.0,0 STARLINK-5229,1 54171U 22141Q   23124.58335648  .00051666  00000-0  32420-2 0  9999,2 54171  53.2168 358.1903 0000972  99.7892  83.8619 15.08825280 28763,6917.925,95.438,540.463,539.118,0.0
54171.0,STARLINK-5229,PAYLOAD,2023-05-04 22:00:01,15.08866255,9.9e-05,53.2166,356.6956,91.2621,103.9811,-0.0037756,-0.00059918,0.0,0 STARLINK-5229,1 54171U 22141Q   23124.91668981 -.00059918  00000-0 -37756-2 0  9992,2 54171  53.2166 356.6956 0000990  91.2621 103.9811 15.08866255 28810,6917.8,95.436,540.35,538.98,0.0
54171.0,STARLINK-5229,PAYLOAD,2023-05-05 14:00:01,15.088219,9.91e-05,53.2161,353.7012,113.0952,105.2774,0.0029779,0.00047401,0.0,0 STARLINK-5229,1 54171U 22141Q   23125.58334491  .00047401  00000-0  29779-2 0  9990,2 54171  53.2161 353.7012 0000991 113.0952 105.2774 15.08821900 28919,6917.936,95.439,540.486,539.115,0.0
54171.0,STARLINK-5229,PAYLOAD,2023-05-05 22:00:00,15.08862602,9.57e-05,53.2159,352.2066,104.293,125.6739,-0.003693,-0.00058619,0.0,0 STARLINK-5229,1 54171U 22141Q   23125.91667824 -.00058619  00000-0 -36930-2 0  9998,2 54171  53.2159 352.2066 0000957 104.2930 125.6739 15.08862602  1304,6917.811,95.436,540.338,539.014,0.0
54171.0,STARLINK-5229,PAYLOAD,2023-05-06 06:00:00,15.08837443,8.97e-05,53.2156,350.7095,109.1463,132.4124,-0.0011171,-0.00018021,0.0,0 STARLINK-5229,1 54171U 22141Q   23126.25001157 -.00018021  00000-0 -11171-2 0  9990,2 54171  53.2156 350.7095 0000897 109.1463 132.4124 15.08837443 29011,6917.888,95.438,540.374,539.133,0.0
54171.0,STARLINK-5229,PAYLOAD,2023-05-06 16:00:00,15.08848975,0.0001018,53.2157,348.8382,118.2947,227.739,0.00017805,2.548e-05,0.0,0 STARLINK-5229,1 54171U 22141Q   23126.66667824  .00002548  00000-0  17805-3 0  9990,2 54171  53.2157 348.8382 0001018 118.2947 227.7390 15.08848975  1300,6917.853,95.437,540.422,539.014,0.0
54171.0,STARLINK-5229,PAYLOAD,2023-05-07 00:00:00,15.08832471,9.7e-05,53.2157,347.3433,94.3819,263.2922,-0.0016557,-0.00026536,0.0,0 STARLINK-5229,1 54171U 22141Q   23127.00001157 -.00026536  00000-0 -16557-2 0  9997,2 54171  53.2157 347.3433 0000970  94.3819 263.2922 15.08832471 29129,6917.903,95.438,540.439,539.097,0.0
54171.0,STARLINK-5229,PAYLOAD,2023-05-07 19:05:17,15.08839209,0.0001149,53.2159,343.7706,141.6888,218.4186,6.5764e-07,-2.77e-06,0.0,0 STARLINK-5229,1 54171U 22141Q   23127.79534602 -.00000277  00000-0  65764-6 0  9990,2 54171  53.2159 343.7706 0001149 141.6888 218.4186 15.08839209 29259,6917.883,95.438,540.543,538.953,0.0
54171.0,STARLINK-5229,PAYLOAD,2023-05-07 20:40:41,15.08838967,9.77e-05,53.2166,343.4745,101.4268,258.6834,3.1939e-05,2.21e-06,0.0,0 STARLINK-5229,1 54171U 22141Q   23127.86158890  .00000221  00000-0  31939-4 0  9992,2 54171  53.2166 343.4745 0000977 101.4268 258.6834 15.08838967 29268,6917.884,95.438,540.424,539.073,0.0
54171.0,STARLINK-5229,PAYLOAD,2023-05-07 23:51:27,15.08840019,0.000102,53.2166,342.8797,102.1053,258.0054,4.8716e-05,4.88e-06,0.0,0 STARLINK-5229,1 54171U 22141Q   23127.99406856  .00000488  00000-0  48716-4 0  9990,2 54171  53.2166 342.8797 0001020 102.1053 258.0054 15.08840019 29289,6917.88,95.438,540.451,539.04,0.0
54171.0,STARLINK-5229,PAYLOAD,2023-05-10 01:08:24,15.08853075,0.0001026,53.2166,333.6607,95.3788,264.7321,0.00034061,5.139e-05,0.0,0 STARLINK-5229,1 54171U 22141Q   23130.04750559  .00005139  00000-0  34061-3 0  9997,2 54171  53.2166 333.6607 0001026  95.3788 264.7321 15.08853075 29592,6917.84,95.437,540.415,538.996,0.0
54171.0,STARLINK-5229,PAYLOAD,2023-05-10 20:13:02,15.08847094,0.0001057,53.216,330.0928,86.9174,273.1939,0.00014325,1.993e-05,0.0,0 STARLINK-5229,1 54171U 22141Q   23130.84238740  .00001993  00000-0  14325-3 0  9993,2 54171  53.2160 330.0928 0001057  86.9174 273.1939 15.08847094 29719,6917.859,95.437,540.455,538.992,0.0
